     2.10           NAVIGATION DATA                         RINEX VERSION / TYPE
GRX1200 V8,70       UNLP                2023 11 03 23:59    PGM / RUN BY / DATE 
    2.7940D-08 -7.4506D-09 -1.1921D-07  1.1921D-07          ION ALPHA           
    1.3722D+05 -4.9152D+04 -1.3107D+05 -2.6214D+05          ION BETA            
   -9.313225746155D-10-7.105427357601D-15    61440     2287 DELTA-UTC: A0,A1,T,W
    18                                                      LEAP SECONDS        
                                                            END OF HEADER       
 2 23 11 04 00 00  0.0-5.336077883840D-04 4.888534022029D-12 0.000000000000D+00
    8.200000000000D+01 1.178125000000D+01 4.456614188797D-09 8.667023577235D-01
    2.309679985046D-07 1.617077260744D-02 4.557892680168D-06 5.153733724594D+03
    5.184000000000D+05-1.396983861923D-07-5.885063305194D-01-2.514570951462D-07
    9.676981155050D-01 3.010937500000D+02-1.321250375450D+00-8.359990921747D-09
   -1.475061461864D-10 1.000000000000D+00 2.286000000000D+03 0.000000000000D+00
    2.000000000000D+00 0.000000000000D+00-1.769512891769D-08 8.200000000000D+01
    5.111400000000D+05 4.000000000000D+00
 8 23 11 04 00 00  0.0-1.503997482359D-04-1.818989403546D-12 0.000000000000D+00
    7.500000000000D+01 6.065625000000D+01 4.708410550336D-09 3.459269925620D-01
    3.241002559662D-06 8.834169246256D-03 6.368383765221D-06 5.153774505615D+03
    5.184000000000D+05 9.126961231232D-08-1.583609044633D+00 8.940696716309D-08
    9.560806602543D-01 2.498750000000D+02 2.748342794938D-01-8.233556947346D-09
   -2.203663224121D-10 1.000000000000D+00 2.286000000000D+03 0.000000000000D+00
    2.000000000000D+00 0.000000000000D+00 5.122274160385D-09 7.500000000000D+01
    5.111400000000D+05 4.000000000000D+00
10 23 11 04 00 00  0.0-5.998881533742D-05-1.591615728103D-12 0.000000000000D+00
    7.800000000000D+01-8.125000000000D+01 3.841231333013D-09 2.402665984774D+00
   -4.285946488380D-06 9.021180332638D-03 5.681067705154D-06 5.153693635941D+03
    5.184000000000D+05-6.332993507385D-08 5.397630616752D-01-1.229345798492D-07
    9.812087345051D-01 2.820000000000D+02-2.432197816950D+00-7.761395082184D-09
    2.678682969881D-11 1.000000000000D+00 2.286000000000D+03 0.000000000000D+00
    2.000000000000D+00 0.000000000000D+00 2.328306436539D-09 7.800000000000D+01
    5.111400000000D+05 4.000000000000D+00
21 23 11 04 00 00  0.0 1.451815478504D-04-9.094947017729D-13 0.000000000000D+00
    4.000000000000D+01 1.096875000000D+01 4.705195788546D-09 3.880889031063D-01
    8.754432201385D-08 2.485422708560D-02 4.228204488754D-06 5.153757057190D+03
    5.184000000000D+05 1.452863216400D-07-5.944759652358D-01-3.278255462646D-07
    9.619782082194D-01 3.010312500000D+02-6.892402449827D-01-8.624287950454D-09
   -1.339341554329D-10 1.000000000000D+00 2.286000000000D+03 0.000000000000D+00
    2.000000000000D+00 0.000000000000D+00-1.024454832077D-08 4.000000000000D+01
    5.111400000000D+05 4.000000000000D+00
27 23 11 04 00 00  0.0-6.490806117654D-05-5.456968210638D-12 0.000000000000D+00
    3.700000000000D+01 7.184375000000D+01 4.503044603865D-09 4.548642728199D-01
    3.928318619728D-06 1.176533743273D-02 6.645917892456D-06 5.153673084259D+03
    5.184000000000D+05-5.401670932770D-08-1.558891099466D+00 1.583248376846D-07
    9.650213031136D-01 2.510937500000D+02 7.416410562583D-01-8.211413771164D-09
   -2.496532425234D-10 1.000000000000D+00 2.286000000000D+03 0.000000000000D+00
    2.000000000000D+00 0.000000000000D+00 1.396983861923D-09 3.700000000000D+01
    5.111400000000D+05 4.000000000000D+00
32 23 11 04 00 00  0.0-5.813813768327D-04-4.774847184308D-12 0.000000000000D+00
    6.700000000000D+01-5.200000000000D+01 4.427327393586D-09 1.086201218126D+00
   -2.738088369370D-06 7.073824875988D-03 8.333474397659D-06 5.153594627380D+03
    5.184000000000D+05-1.024454832077D-07 1.578389371944D+00 6.705522537231D-08
    9.602073385698D-01 2.175000000000D+02-2.224403778729D+00-7.989261696650D-09
    2.478674765438D-10 1.000000000000D+00 2.286000000000D+03 0.000000000000D+00
    2.000000000000D+00 0.000000000000D+00 4.656612873077D-10 6.700000000000D+01
    5.111400000000D+05 4.000000000000D+00
28 23 11 03 23 59 44.0-3.851996734738D-05-7.958078640513D-12 0.000000000000D+00
    2.160000000000D+02-2.500000000000D+00 4.685195342802D-09 2.430402437571D+00
   -1.899898052216D-07 7.596701616421D-04 7.867813110352D-06 5.153771463394D+03
    5.183840000000D+05 7.450580596924D-09 2.601338270878D+00-1.117587089539D-08
    9.615325521703D-01 2.314687500000D+02 1.554530145060D+00-7.892828612910D-09
    1.492919260437D-10 1.000000000000D+00 2.286000000000D+03 0.000000000000D+00
    2.000000000000D+00 0.000000000000D+00-9.778887033463D-09 9.840000000000D+02
    5.111100000000D+05 4.000000000000D+00
17 23 11 04 00 00  0.0 7.235198281705D-04-2.273736754432D-13 0.000000000000D+00
    7.900000000000D+01 6.425000000000D+01 4.335537706623D-09 3.978187185864D-01
    3.360211849213D-06 1.383089506999D-02 6.647780537605D-06 5.153610549927D+03
    5.184000000000D+05-1.415610313416D-07-1.492043056371D+00-9.499490261078D-08
    9.717401347514D-01 2.617500000000D+02-1.381830077901D+00-8.216056279764D-09
   -1.692927603658D-10 1.000000000000D+00 2.286000000000D+03 0.000000000000D+00
    2.000000000000D+00 0.000000000000D+00-1.117587089539D-08 7.900000000000D+01
    5.111400000000D+05 4.000000000000D+00
31 23 11 03 23 59 44.0-2.253800630569D-04-4.547473508865D-13 0.000000000000D+00
    1.000000000000D+01-1.250000000000D+00 4.785913443328D-09 2.949293665188D+00
   -8.568167686462D-08 1.058445870876D-02 7.832422852516D-06 5.153641338348D+03
    5.183840000000D+05-6.891787052155D-08 2.657447886697D+00-1.415610313416D-07
    9.544793311068D-01 2.266250000000D+02 6.155853157479D-01-7.811396862678D-09
    1.335769966859D-10 1.000000000000D+00 2.286000000000D+03 0.000000000000D+00
    2.000000000000D+00 0.000000000000D+00-1.303851604462D-08 1.000000000000D+01
    5.111100000000D+05 4.000000000000D+00
 4 23 11 04 00 00  0.0 2.030595205724D-04 1.057287590811D-11 0.000000000000D+00
    4.200000000000D+01-4.203125000000D+01 4.329823166671D-09 8.891162288598D-02
   -2.171844244003D-06 2.659809775651D-03 8.016824722290D-06 5.153611999512D+03
    5.184000000000D+05 6.519258022308D-08 1.622528692764D+00 5.587935447693D-09
    9.632535377763D-01 2.260000000000D+02-3.059762687969D+00-7.911043375941D-09
    2.950122923728D-10 1.000000000000D+00 2.286000000000D+03 0.000000000000D+00
    2.000000000000D+00 0.000000000000D+00-4.190951585770D-09 4.200000000000D+01
    5.111400000000D+05 4.000000000000D+00
19 23 11 04 00 00  0.0 3.940407186747D-04 5.229594535194D-12 0.000000000000D+00
    3.000000000000D+01 7.806250000000D+01 4.309465229113D-09 2.454666685029D+00
    4.127621650696D-06 9.365308331326D-03 5.923211574554D-06 5.153662809372D+03
    5.184000000000D+05 1.452863216400D-07-1.447579415390D+00 1.695007085800D-07
    9.708629324981D-01 2.703125000000D+02 2.441808177855D+00-7.894971787437D-09
   -2.000083293430D-10 1.000000000000D+00 2.286000000000D+03 0.000000000000D+00
    2.000000000000D+00 0.000000000000D+00-1.536682248116D-08 3.000000000000D+01
    5.111400000000D+05 4.000000000000D+00
